IRIDIUM 63              
1 25286U 98021B   26003.21735874  .00000788  00000+0  26053-3 0  9992
2 25286  86.3983 358.1995 0002151  82.8134 277.3308 14.36757529452568
IRIDIUM 69              
1 25319U 98026A   26003.30749972  .00000816  00000+0  24658-3 0  9999
2 25319  86.3970  10.8178 0004575  86.3688 273.8035 14.41240313451887
IRIDIUM 71              
1 25320U 98026B   26003.29281201  .00000618  00000+0  18503-3 0  9997
2 25320  86.3972   5.4951 0003750 117.9150 242.2430 14.41334753452410
IRIDIUM 73              
1 25344U 98032C   26003.28019468  .00001329  00000+0  32394-3 0  9997
2 25344  86.4424 321.8347 0002788  75.4543 284.6972 14.52027470459591
IRIDIUM 82              
1 25467U 98051A   26003.05123729  .00068523  00000+0  11927-2 0  9992
2 25467  86.3588  10.3606 0055842 248.3882 111.1422 15.48740981454696
